{
  "norad_id": 53402,
  "name": "STARLINK-4499",
  "history": [
    {
      "epoch": "2026-03-28T06:40:19.879104Z",
      "apogee_km": 540.7075424521017,
      "perigee_km": 538.7511698465833,
      "latitude_deg": -1.0130412195849003e-05,
      "longitude_deg": 114.89011013382624,
      "height_km": 540.6538584226012,
      "semi_major_axis_km": 6917.866356149342,
      "eccentricity": 0.0001414,
      "inclination_deg": 53.2191,
      "raan_deg": 40.6737,
      "arg_perigee_deg": 91.6805,
      "mean_anomaly_deg": 268.4349,
      "mean_motion_rev_day": 15.08844591
    },
    {
      "epoch": "2026-03-29T03:20:20.588352Z",
      "apogee_km": 540.6797693384642,
      "perigee_km": 538.7939569233749,
      "latitude_deg": 5.533915136988509e-05,
      "longitude_deg": 160.17254546668448,
      "height_km": 540.6508585336042,
      "semi_major_axis_km": 6917.873863130919,
      "eccentricity": 0.0001363,
      "inclination_deg": 53.2187,
      "raan_deg": 36.8078,
      "arg_perigee_deg": 91.1037,
      "mean_anomaly_deg": 269.0112,
      "mean_motion_rev_day": 15.08842135
    },
    {
      "epoch": "2026-03-30T03:11:07.394208Z",
      "apogee_km": 540.7228225397221,
      "perigee_km": 538.7318611821338,
      "latitude_deg": 1.1562355358156723e-05,
      "longitude_deg": 157.03895493225193,
      "height_km": 540.6732928968144,
      "semi_major_axis_km": 6917.864341860927,
      "eccentricity": 0.0001439,
      "inclination_deg": 53.2191,
      "raan_deg": 32.3486,
      "arg_perigee_deg": 92.8889,
      "mean_anomaly_deg": 267.2268,
      "mean_motion_rev_day": 15.0884525
    },
    {
      "epoch": "2026-03-30T03:11:07.395072Z",
      "apogee_km": 540.7230992542954,
      "perigee_km": 538.7315844675604,
      "latitude_deg": 7.873161304601116e-06,
      "longitude_deg": 157.03894857957027,
      "height_km": 540.6733068428521,
      "semi_major_axis_km": 6917.864341860927,
      "eccentricity": 0.00014394,
      "inclination_deg": 53.2191,
      "raan_deg": 32.3486,
      "arg_perigee_deg": 92.8889,
      "mean_anomaly_deg": 267.2268,
      "mean_motion_rev_day": 15.0884525
    },
    {
      "epoch": "2026-03-31T04:37:18.248448Z",
      "apogee_km": 540.5994951712146,
      "perigee_km": 538.9037823080862,
      "latitude_deg": -4.3748836707114816e-05,
      "longitude_deg": 129.69115537153917,
      "height_km": 540.6681201561798,
      "semi_major_axis_km": 6917.88863873965,
      "eccentricity": 0.00012256,
      "inclination_deg": 53.2178,
      "raan_deg": 27.5907,
      "arg_perigee_deg": 91.3883,
      "mean_anomaly_deg": 268.7249,
      "mean_motion_rev_day": 15.08837301
    },
    {
      "epoch": "2026-04-01T12:25:01.492032Z",
      "apogee_km": 540.6565246198315,
      "perigee_km": 538.8537219325062,
      "latitude_deg": 4.409461141583387e-05,
      "longitude_deg": 5.508552415696576,
      "height_km": 540.6651037963925,
      "semi_major_axis_km": 6917.892123276169,
      "eccentricity": 0.0001303,
      "inclination_deg": 53.2193,
      "raan_deg": 21.644,
      "arg_perigee_deg": 90.89,
      "mean_anomaly_deg": 269.2242,
      "mean_motion_rev_day": 15.08836161
    },
    {
      "epoch": "2026-04-02T18:37:20.421120Z",
      "apogee_km": 540.5893955352249,
      "perigee_km": 538.8593767597777,
      "latitude_deg": -3.403316813692757e-05,
      "longitude_deg": -94.45936160435457,
      "height_km": 540.6101404023501,
      "semi_major_axis_km": 6917.861386147501,
      "eccentricity": 0.00012504,
      "inclination_deg": 53.2186,
      "raan_deg": 15.9955,
      "arg_perigee_deg": 89.3218,
      "mean_anomaly_deg": 270.7917,
      "mean_motion_rev_day": 15.08846217
    },
    {
      "epoch": "2026-04-03T00:58:52.559904Z",
      "apogee_km": 540.5848745447256,
      "perigee_km": 538.8313391670399,
      "latitude_deg": 5.2367873142088317e-05,
      "longitude_deg": 168.7065393168958,
      "height_km": 540.5860594651537,
      "semi_major_axis_km": 6917.8451068558825,
      "eccentricity": 0.00012674,
      "inclination_deg": 53.2186,
      "raan_deg": 14.8064,
      "arg_perigee_deg": 88.8232,
      "mean_anomaly_deg": 271.2906,
      "mean_motion_rev_day": 15.08851543
    },
    {
      "epoch": "2026-04-04T04:00:26.691840Z",
      "apogee_km": 540.624310439729,
      "perigee_km": 538.835765095786,
      "latitude_deg": 7.576051180575227e-05,
      "longitude_deg": 117.14941563004481,
      "height_km": 540.578966865122,
      "semi_major_axis_km": 6917.867037767757,
      "eccentricity": 0.00012927,
      "inclination_deg": 53.2182,
      "raan_deg": 9.7514,
      "arg_perigee_deg": 86.9906,
      "mean_anomaly_deg": 273.1235,
      "mean_motion_rev_day": 15.08844368
    },
    {
      "epoch": "2026-04-05T03:51:13.071744Z",
      "apogee_km": 540.8157172112651,
      "perigee_km": 538.5848530435587,
      "latitude_deg": -5.086799679635882e-05,
      "longitude_deg": 114.0147414851054,
      "height_km": 540.5346042530332,
      "semi_major_axis_km": 6917.837285127412,
      "eccentricity": 0.00016124,
      "inclination_deg": 53.219,
      "raan_deg": 5.2894,
      "arg_perigee_deg": 86.8537,
      "mean_anomaly_deg": 273.2639,
      "mean_motion_rev_day": 15.08854102
    },
    {
      "epoch": "2026-04-06T00:31:14.724480Z",
      "apogee_km": 540.732659699378,
      "perigee_km": 538.7771100213649,
      "latitude_deg": 2.882911442776864e-05,
      "longitude_deg": 159.2950440856929,
      "height_km": 540.5777903334074,
      "semi_major_axis_km": 6917.891884860371,
      "eccentricity": 0.00014134,
      "inclination_deg": 53.2188,
      "raan_deg": 1.4253,
      "arg_perigee_deg": 85.7256,
      "mean_anomaly_deg": 274.3898,
      "mean_motion_rev_day": 15.08836239
    },
    {
      "epoch": "2026-04-07T09:54:20.633184Z",
      "apogee_km": 540.7827284614077,
      "perigee_km": 538.6772064711904,
      "latitude_deg": -4.51166810129891e-05,
      "longitude_deg": 10.904093683222111,
      "height_km": 540.6246081561438,
      "semi_major_axis_km": 6917.866967466299,
      "eccentricity": 0.00015218,
      "inclination_deg": 53.2206,
      "raan_deg": 355.1801,
      "arg_perigee_deg": 89.9353,
      "mean_anomaly_deg": 270.1813,
      "mean_motion_rev_day": 15.08844391
    },
    {
      "epoch": "2026-04-08T16:06:40.844448Z",
      "apogee_km": 540.6946680817564,
      "perigee_km": 538.8322309227415,
      "latitude_deg": 4.858107934084156e-05,
      "longitude_deg": -89.07015454856972,
      "height_km": 540.6621998252252,
      "semi_major_axis_km": 6917.900449502249,
      "eccentricity": 0.00013461,
      "inclination_deg": 53.2187,
      "raan_deg": 349.5305,
      "arg_perigee_deg": 90.1782,
      "mean_anomaly_deg": 269.9365,
      "mean_motion_rev_day": 15.08833437
    },
    {
      "epoch": "2026-04-09T15:57:27.905184Z",
      "apogee_km": 540.6629740997978,
      "perigee_km": 538.8380353760476,
      "latitude_deg": -1.4491497805751684e-05,
      "longitude_deg": -92.20532787674416,
      "height_km": 540.5375816546674,
      "semi_major_axis_km": 6917.887504737922,
      "eccentricity": 0.0001319,
      "inclination_deg": 53.2181,
      "raan_deg": 345.0708,
      "arg_perigee_deg": 83.1534,
      "mean_anomaly_deg": 276.9608,
      "mean_motion_rev_day": 15.08837672
    },
    {
      "epoch": "2026-04-10T01:29:47.057280Z",
      "apogee_km": 540.8307245635651,
      "perigee_km": 538.7863333008554,
      "latitude_deg": 4.962724547888681e-05,
      "longitude_deg": 122.53897969831257,
      "height_km": 540.6763012793418,
      "semi_major_axis_km": 6917.94552893221,
      "eccentricity": 0.00014776,
      "inclination_deg": 53.2183,
      "raan_deg": 343.2866,
      "arg_perigee_deg": 88.4387,
      "mean_anomaly_deg": 271.6775,
      "mean_motion_rev_day": 15.08818689
    },
    {
      "epoch": "2026-04-11T20:25:11.152992Z",
      "apogee_km": 540.6578216973849,
      "perigee_km": 538.8536352737956,
      "latitude_deg": 4.149844643502794e-05,
      "longitude_deg": -171.1034284595517,
      "height_km": 540.5447811771885,
      "semi_major_axis_km": 6917.89272848559,
      "eccentricity": 0.0001304,
      "inclination_deg": 53.2179,
      "raan_deg": 335.2574,
      "arg_perigee_deg": 83.2013,
      "mean_anomaly_deg": 276.9128,
      "mean_motion_rev_day": 15.08835963
    },
    {
      "epoch": "2026-04-12T21:51:21.544128Z",
      "apogee_km": 540.6326488389595,
      "perigee_km": 538.8727377009909,
      "latitude_deg": 3.4287208357893105e-05,
      "longitude_deg": 161.55004065644138,
      "height_km": 540.5920603877166,
      "semi_major_axis_km": 6917.8896932699745,
      "eccentricity": 0.0001272,
      "inclination_deg": 53.2173,
      "raan_deg": 330.4988,
      "arg_perigee_deg": 86.322,
      "mean_anomaly_deg": 273.7918,
      "mean_motion_rev_day": 15.08836956
    },
    {
      "epoch": "2026-04-14T21:32:55.095360Z",
      "apogee_km": 540.8498863970399,
      "perigee_km": 538.5974309665726,
      "latitude_deg": -4.6863386836580924e-05,
      "longitude_deg": 155.2816177564551,
      "height_km": 540.5755193437349,
      "semi_major_axis_km": 6917.860658681806,
      "eccentricity": 0.0001628,
      "inclination_deg": 53.2209,
      "raan_deg": 321.5789,
      "arg_perigee_deg": 87.7684,
      "mean_anomaly_deg": 272.3494,
      "mean_motion_rev_day": 15.08846455
    },
    {
      "epoch": "2026-04-15T07:05:13.928640Z",
      "apogee_km": 540.3194875662748,
      "perigee_km": 539.1697356424265,
      "latitude_deg": 9.184048280489216e-06,
      "longitude_deg": 10.023553234346695,
      "height_km": 540.3685756492586,
      "semi_major_axis_km": 6917.881611604351,
      "eccentricity": 8.31e-05,
      "inclination_deg": 53.2126,
      "raan_deg": 319.791,
      "arg_perigee_deg": 61.7525,
      "mean_anomaly_deg": 298.3551,
      "mean_motion_rev_day": 15.088396
    }
  ]
}